{
  "type": "FeatureCollection",
  "features": [
    {
      "type": "Feature",
      "properties": {
        "norad_id": 41772,
        "name": "SKYSAT-C5",
        "group": "resource",
        "lat": 36.16180839423587,
        "lon": 21.166747287465864,
        "alt_km": 456.53138618639423,
        "timestamp": "2025-12-08T10:52:02.606800+00:00",
        "meta_object_name": "SKYSAT-C5",
        "meta_object_id": "2016-058C",
        "meta_epoch": "2025-12-07T20:37:59.013120",
        "meta_mean_motion": 15.35526618,
        "meta_eccentricity": 0.0002796,
        "meta_inclination": 97.0758,
        "meta_ra_of_asc_node": 25.8058,
        "meta_arg_of_pericenter": 117.7245,
        "meta_mean_anomaly": 242.4283,
        "meta_ephemeris_type": 0,
        "meta_classification_type": "U",
        "meta_norad_cat_id": 41772,
        "meta_element_set_no": 999,
        "meta_rev_at_epoch": 51441,
        "meta_bstar": 0.00039590067,
        "meta_mean_motion_dot": 0.00013603,
        "meta_mean_motion_ddot": 0,
        "tle_line1": "1 41772U 16058C   25341.85971080  .00013603  00000+0  39590-3 0  9995",
        "tle_line2": "2 41772  97.0758  25.8058 0002796 117.7245 242.4283 15.35526618514410"
      },
      "geometry": {
        "type": "Point",
        "coordinates": [
          21.166747287465864,
          36.16180839423587
        ]
      }
    },
    {
      "type": "Feature",
      "properties": {
        "norad_id": 41773,
        "name": "SKYSAT-C2",
        "group": "resource",
        "lat": 15.684259256847646,
        "lon": 5.174111623864464,
        "alt_km": 452.6328947328366,
        "timestamp": "2025-12-08T10:52:02.606810+00:00",
        "meta_object_name": "SKYSAT-C2",
        "meta_object_id": "2016-058D",
        "meta_epoch": "2025-12-07T19:10:30.131904",
        "meta_mean_motion": 15.37107164,
        "meta_eccentricity": 0.00047177,
        "meta_inclination": 97.036,
        "meta_ra_of_asc_node": 6.5355,
        "meta_arg_of_pericenter": 46.8729,
        "meta_mean_anomaly": 313.291,
        "meta_ephemeris_type": 0,
        "meta_classification_type": "U",
        "meta_norad_cat_id": 41773,
        "meta_element_set_no": 999,
        "meta_rev_at_epoch": 51560,
        "meta_bstar": 0.00048806877,
        "meta_mean_motion_dot": 0.00017675,
        "meta_mean_motion_ddot": 0,
        "tle_line1": "1 41773U 16058D   25341.79895986  .00017675  00000+0  48807-3 0  9993",
        "tle_line2": "2 41773  97.0360   6.5355 0004717  46.8729 313.2910 15.37107164515609"
      },
      "geometry": {
        "type": "Point",
        "coordinates": [
          5.174111623864464,
          15.684259256847646
        ]
      }
    },
    {
      "type": "Feature",
      "properties": {
        "norad_id": 41774,
        "name": "SKYSAT-C3",
        "group": "resource",
        "lat": 81.19693513328816,
        "lon": -111.84318076337874,
        "alt_km": 425.3123629360207,
        "timestamp": "2025-12-08T10:52:02.606820+00:00",
        "meta_object_name": "SKYSAT-C3",
        "meta_object_id": "2016-058E",
        "meta_epoch": "2025-12-07T20:27:30.105792",
        "meta_mean_motion": 15.44148026,
        "meta_eccentricity": 0.00015674,
        "meta_inclination": 96.9299,
        "meta_ra_of_asc_node": 15.8268,
        "meta_arg_of_pericenter": 104.9278,
        "meta_mean_anomaly": 255.2145,
        "meta_ephemeris_type": 0,
        "meta_classification_type": "U",
        "meta_norad_cat_id": 41774,
        "meta_element_set_no": 999,
        "meta_rev_at_epoch": 51650,
        "meta_bstar": 0.00061173858,
        "meta_mean_motion_dot": 0.00028002,
        "meta_mean_motion_ddot": 0,
        "tle_line1": "1 41774U 16058E   25341.85243178  .00028002  00000+0  61174-3 0  9999",
        "tle_line2": "2 41774  96.9299  15.8268 0001567 104.9278 255.2145 15.44148026516505"
      },
      "geometry": {
        "type": "Point",
        "coordinates": [
          -111.84318076337874,
          81.19693513328816
        ]
      }
    },
    {
      "type": "Feature",
      "properties": {
        "norad_id": 41785,
        "name": "ALSAT 1B",
        "group": "resource",
        "lat": -13.7840413252037,
        "lon": -3.6499321542944836,
        "alt_km": 663.8293730392779,
        "timestamp": "2025-12-08T10:52:02.606830+00:00",
        "meta_object_name": "ALSAT 1B",
        "meta_object_id": "2016-059C",
        "meta_epoch": "2025-12-07T23:30:39.858336",
        "meta_mean_motion": 14.72067553,
        "meta_eccentricity": 0.0010587,
        "meta_inclination": 97.7815,
        "meta_ra_of_asc_node": 353.9748,
        "meta_arg_of_pericenter": 117.2716,
        "meta_mean_anomaly": 242.9571,
        "meta_ephemeris_type": 0,
        "meta_classification_type": "U",
        "meta_norad_cat_id": 41785,
        "meta_element_set_no": 999,
        "meta_rev_at_epoch": 49244,
        "meta_bstar": 0.00012716241,
        "meta_mean_motion_dot": 7.53e-06,
        "meta_mean_motion_ddot": 0,
        "tle_line1": "1 41785U 16059C   25341.97962799  .00000753  00000+0  12716-3 0  9993",
        "tle_line2": "2 41785  97.7815 353.9748 0010587 117.2716 242.9571 14.72067553492442"
      },
      "geometry": {
        "type": "Point",
        "coordinates": [
          -3.6499321542944836,
          -13.7840413252037
        ]
      }
    },
    {
      "type": "Feature",
      "properties": {
        "norad_id": 41787,
        "name": "PATHFINDER 1",
        "group": "resource",
        "lat": 41.026616436986686,
        "lon": 172.2876082991318,
        "alt_km": 651.231206472813,
        "timestamp": "2025-12-08T10:52:02.606841+00:00",
        "meta_object_name": "PATHFINDER 1",
        "meta_object_id": "2016-059E",
        "meta_epoch": "2025-12-07T22:47:05.467776",
        "meta_mean_motion": 14.67307414,
        "meta_eccentricity": 0.00300474,
        "meta_inclination": 97.8138,
        "meta_ra_of_asc_node": 344.9453,
        "meta_arg_of_pericenter": 95.7379,
        "meta_mean_anomaly": 264.7254,
        "meta_ephemeris_type": 0,
        "meta_classification_type": "U",
        "meta_norad_cat_id": 41787,
        "meta_element_set_no": 999,
        "meta_rev_at_epoch": 49166,
        "meta_bstar": 0.00023191195,
        "meta_mean_motion_dot": 1.271e-05,
        "meta_mean_motion_ddot": 0,
        "tle_line1": "1 41787U 16059E   25341.94936884  .00001271  00000+0  23191-3 0  9993",
        "tle_line2": "2 41787  97.8138 344.9453 0030047  95.7379 264.7254 14.67307414491664"
      },
      "geometry": {
        "type": "Point",
        "coordinates": [
          172.2876082991318,
          41.026616436986686
        ]
      }
    },
    {
      "type": "Feature",
      "properties": {
        "norad_id": 41790,
        "name": "SCATSAT 1",
        "group": "resource",
        "lat": -47.614397784938745,
        "lon": 48.099928996014725,
        "alt_km": 678.3217614316427,
        "timestamp": "2025-12-08T10:52:02.606851+00:00",
        "meta_object_name": "SCATSAT 1",
        "meta_object_id": "2016-059H",
        "meta_epoch": "2025-12-07T22:05:49.519392",
        "meta_mean_motion": 14.78910917,
        "meta_eccentricity": 0.00560525,
        "meta_inclination": 98.1467,
        "meta_ra_of_asc_node": 38.5309,
        "meta_arg_of_pericenter": 143.237,
        "meta_mean_anomaly": 217.2705,
        "meta_ephemeris_type": 0,
        "meta_classification_type": "U",
        "meta_norad_cat_id": 41790,
        "meta_element_set_no": 999,
        "meta_rev_at_epoch": 7331,
        "meta_bstar": 0.00034490423,
        "meta_mean_motion_dot": 2.554e-05,
        "meta_mean_motion_ddot": 0,
        "tle_line1": "1 41790U 16059H   25341.92071203  .00002554  00000+0  34490-3 0  9999",
        "tle_line2": "2 41790  98.1467  38.5309 0056052 143.2370 217.2705 14.78910917 73319"
      },
      "geometry": {
        "type": "Point",
        "coordinates": [
          48.099928996014725,
          -47.614397784938745
        ]
      }
    },
    {
      "type": "Feature",
      "properties": {
        "norad_id": 41875,
        "name": "GOKTURK 1A",
        "group": "resource",
        "lat": -72.83226167106683,
        "lon": -97.5110088660066,
        "alt_km": 692.3391733552025,
        "timestamp": "2025-12-08T10:52:02.606861+00:00",
        "meta_object_name": "GOKTURK 1A",
        "meta_object_id": "2016-073A",
        "meta_epoch": "2025-12-07T23:43:01.945344",
        "meta_mean_motion": 14.62770737,
        "meta_eccentricity": 0.00012347,
        "meta_inclination": 98.1437,
        "meta_ra_of_asc_node": 234.4169,
        "meta_arg_of_pericenter": 83.2946,
        "meta_mean_anomaly": 276.8397,
        "meta_ephemeris_type": 0,
        "meta_classification_type": "U",
        "meta_norad_cat_id": 41875,
        "meta_element_set_no": 999,
        "meta_rev_at_epoch": 48087,
        "meta_bstar": 0.00018613164,
        "meta_mean_motion_dot": 9.02e-06,
        "meta_mean_motion_ddot": 0,
        "tle_line1": "1 41875U 16073A   25341.98821696  .00000902  00000+0  18613-3 0  9998",
        "tle_line2": "2 41875  98.1437 234.4169 0001234  83.2946 276.8397 14.62770737480873"
      },
      "geometry": {
        "type": "Point",
        "coordinates": [
          -97.5110088660066,
          -72.83226167106683
        ]
      }
    }
  ]
}